STARLINK-30299          
1 57650U 23122U   23302.86373604  .00020889  00000+0  15553-2 0  9997
2 57650  42.9997  97.3133 0001528 284.7005  75.3668 15.02571718 12547
STARLINK-30294          
1 57651U 23122V   23302.84261180  .00044017  00000+0  22468-2 0  9993
2 57651  43.0006  92.0574 0001948 291.2699  68.7940 15.16027301 12548
STARLINK-30276          
1 57652U 23122W   23302.92354935  .00017166  00000+0  12815-2 0  9994
2 57652  43.0001  96.8995 0001467 283.7335  76.3343 15.02570499 12539
STARLINK-30289          
1 57653U 23122X   23302.78277841  .00029677  00000+0  15228-2 0  9990
2 57653  43.0020  89.8758 0001615 269.9621  90.1041 15.16001953 12627
STARLINK-30267          
1 57663U 23124A   23303.05632628  .00060706  00000+0  28792-2 0  9990
2 57663  53.0581 239.0501 0001515 101.0718 259.0447 15.18726732 11679
STARLINK-30302          
1 57664U 23124B   23303.12580428  .00079704  00000+0  37645-2 0  9994
2 57664  53.0556 240.1853 0001192 109.1051 251.0073 15.18737365 11801
STARLINK-30298          
1 57665U 23124C   23303.06217746  .00067984  00000+0  32183-2 0  9997
2 57665  53.0558 240.4995 0001310  90.5432 269.5712 15.18737911 11791
STARLINK-30301          
1 57666U 23124D   23303.15883078 -.00341919  00000+0 -47805-2 0  9997
2 57666  53.0447 217.9478 0002082 144.9964 215.1184 15.57363450 12118
STARLINK-30275          
1 57667U 23124E   23303.05779446  .00014044  00000+0  68212-3 0  9990
2 57667  53.0552 240.4705 0001287  81.3289 278.7851 15.18720701 11433
STARLINK-30278          
1 57668U 23124F   23303.12140773  .00025951  00000+0  12454-2 0  9999
2 57668  53.0563 240.1540 0001809 116.4973 243.6207 15.18725830 11805
STARLINK-30271          
1 57669U 23124G   23303.05120988  .00011045  00000+0  53991-3 0  9999
2 57669  53.0556 240.4267 0001924 120.8492 239.2692 15.18719332 11797
STARLINK-30322          
1 57670U 23124H   23302.25126703  .00083094  00000+0  39043-2 0  9997
2 57670  53.0547 243.2773 0001553 106.3658 253.7507 15.18894982 11693
STARLINK-30296          
1 57671U 23124J   23303.20577284  .00049194  00000+0  23384-2 0  9992
2 57671  53.0546 237.1289 0001497  93.6343 266.4823 15.18746348 11552
STARLINK-30274          
1 57672U 23124K   23303.15302375  .00047306  00000+0  22497-2 0  9991
2 57672  53.0534 239.6431 0001012 102.9800 257.1308 15.18748256 11668
STARLINK-30316          
1 57673U 23124L   23302.82308553  .00002655  00000+0  14145-3 0  9999
2 57673  53.0531 241.1441 0002569  96.7746 263.3541 15.18727839 11765
STARLINK-30314          
1 57674U 23124M   23303.10824061  .00030491  00000+0  14590-2 0  9991
2 57674  53.0549 240.0722 0002229  99.4500 260.6746 15.18742236 11446
STARLINK-30317          
1 57675U 23124N   23303.11044548  .00035762  00000+0  17083-2 0  9993
2 57675  53.0556 240.0866 0001635 111.1760 248.9409 15.18723920 11808
STARLINK-30313          
1 57676U 23124P   23303.14992986  .00019339  00000+0  93237-3 0  9993
2 57676  53.0527 239.6201 0001752 100.7085 259.4107 15.18740429 11814
STARLINK-30303          
1 57677U 23124Q   23303.14773390  .00005413  00000+0  27250-3 0  9990
2 57677  53.0527 239.6063 0001558 104.2326 255.8841 15.18721617 11679
STARLINK-30320          
1 57678U 23124R   23303.10385035  .00069291  00000+0  32783-2 0  9992
2 57678  53.0543 240.0474 0001479 110.9769 249.1384 15.18748382 11808
STARLINK-30321          
1 57679U 23124S   23303.09289008  .00050912  00000+0  24196-2 0  9993
2 57679  53.0519 239.9795 0001623  81.7945 278.3233 15.18737191 11349
STARLINK-30283          
1 57680U 23124T   23303.10603386  .00012095  00000+0  58998-3 0  9994
2 57680  53.0556 239.3585 0001610  98.5615 261.5562 15.18704447 11818
STARLINK-30273          
1 57681U 23124U   23302.83842721  .00001188  00000+0  71709-4 0  9999
2 57681  53.0544 241.2388 0001745  98.6845 261.4347 15.18713059 11767
STARLINK-30297          
1 57682U 23124V   23303.14553715  .00040815  00000+0  19450-2 0  9990
2 57682  53.0512 239.5979 0001417 122.5353 237.5778 15.18744931 11817
STARLINK-30295          
1 57683U 23124W   23302.80118184  .00010358  00000+0  50729-3 0  9994
2 57683  53.0545 238.1443 0003023  87.2097 272.9244 15.18721102 11807
STARLINK-30288          
1 57698U 23129A   23302.91303325  .00003088  00000+0  24352-3 0  9995
2 57698  42.9995 122.7057 0001765 276.3857  83.6784 15.02548060 11027
STARLINK-30347          
1 57699U 23129B   23302.89347221  .00025877  00000+0  13301-2 0  9997
2 57699  43.0008 116.5519 0001926 277.5389  82.5240 15.15999564 11096
STARLINK-30332          
1 57700U 23129C   23302.90972279  .00020634  00000+0  15365-2 0  9997
2 57700  42.9986 122.6804 0001863 275.4648  84.5982 15.02573914 10886
STARLINK-30345          
1 57701U 23129D   23302.96298505  .00012881  00000+0  96638-3 0  9995
2 57701  42.9991 123.0843 0001443 266.8984  93.1693 15.02554891 10666
STARLINK-30333          
1 57702U 23129E   23302.95628501 -.00002774  00000+0 -19026-3 0  9996
2 57702  42.9992 123.0339 0001422 274.3682  85.6998 15.02552162 11028
STARLINK-30336          
1 57703U 23129F   23302.95964829  .00012872  00000+0  96549-3 0  9996
2 57703  42.9988 123.0580 0001674 276.1821  83.8831 15.02564367 10728
STARLINK-30346          
1 57704U 23129G   23302.88318963  .00003250  00000+0  25552-3 0  9997
2 57704  42.9986 123.3445 0001443 273.0629  87.0048 15.02541368 10874
STARLINK-30342          
1 57705U 23129H   23302.97285207  .00009447  00000+0  71308-3 0  9996
2 57705  42.9999 122.2943 0001269 267.6840  92.3857 15.02554156 11035
STARLINK-30337          
1 57706U 23129J   23302.93813786  .00051932  00000+0  17809-2 0  9993
2 57706  43.0003 116.9427 0008808 298.5027  61.4938 15.29376571 10956
STARLINK-30327          
1 57707U 23129K   23302.86237966  .00020361  00000+0  10504-2 0  9993
2 57707  43.0004 118.9377 0002085 271.0684  88.9925 15.15983234 10922
STARLINK-30315          
1 57708U 23129L   23302.87319897  .00008998  00000+0  67999-3 0  9992
2 57708  42.9989 123.2693 0001682 280.3700  79.6953 15.02553121 11010
STARLINK-30287          
1 57709U 23129M   23302.94633665  .00002326  00000+0  18717-3 0  9996
2 57709  42.9999 122.9597 0001245 273.7011  86.3688 15.02543542 11024
STARLINK-30335          
1 57710U 23129N   23302.87099706  .00023064  00000+0  17154-2 0  9997
2 57710  42.9991 123.2518 0001477 270.1300  89.9373 15.02566289 11016
STARLINK-30318          
1 57711U 23129P   23302.97062958  .00014145  00000+0  10593-2 0  9998
2 57711  42.9992 122.2783 0001921 273.1449  86.9173 15.02563104 10794
STARLINK-30348          
1 57712U 23129Q   23302.86653832  .00006288  00000+0  47981-3 0  9995
2 57712  42.9990 123.2171 0001293 268.7942  91.2752 15.02558377 11019
STARLINK-30349          
1 57713U 23129R   23302.92635504  .00018038  00000+0  13458-2 0  9996
2 57713  42.9994 122.8059 0001185 277.8161  82.2547 15.02568487 10887
STARLINK-30341          
1 57714U 23129S   23302.90304749  .00003771  00000+0  29402-3 0  9994
2 57714  42.9989 122.6297 0001552 274.0504  86.0161 15.02545602 11027
STARLINK-30300          
1 57715U 23129T   23302.86986870  .00014276  00000+0  10691-2 0  9992
2 57715  42.9994 123.2435 0001631 264.0970  95.9687 15.02559078 11012
STARLINK-30281          
1 57716U 23129U   23302.91636806  .00012440  00000+0  93380-3 0  9998
2 57716  42.9994 122.7325 0001902 268.8364  91.2260 15.02557376 10884
STARLINK-30325          
1 57717U 23129V   23302.86321235  .00017774  00000+0  13267-2 0  9990
2 57717  42.9996 123.1920 0001515 280.4036  79.6635 15.02558418 11019
STARLINK-30338          
1 57718U 23129W   23302.91969593  .00018029  00000+0  13453-2 0  9993
2 57718  42.9995 122.7562 0001473 278.4692  81.5983 15.02563714 11028
STARLINK-30334          
1 57719U 23129X   23302.98950034  .00006454  00000+0  49242-3 0  9996
2 57719  42.9995 122.4188 0001599 275.0885  84.9775 15.02536542 10895
STARLINK-30375          
1 57732U 23131A   23302.93307833  .00037301  00000+0  19087-2 0  9990
2 57732  42.9988 170.8750 0001703 264.3213  95.7440 15.16006346 10345
STARLINK-30310          
1 57733U 23131B   23302.77010321  .00016820  00000+0  12568-2 0  9996
2 57733  42.9988 174.8295 0001967 262.7954  97.2665 15.02548408 10284
STARLINK-30365          
1 57734U 23131C   23303.07263292  .00006542  00000+0  49872-3 0  9997
2 57734  42.9999 173.6210 0001320 270.9033  89.1658 15.02551825 10293
STARLINK-30371          
1 57735U 23131D   23303.04932012  .00020008  00000+0  14908-2 0  9992
2 57735  43.0005 173.4759 0001542 256.2868 103.7802 15.02565783 10202
STARLINK-30352          
1 57736U 23131E   23300.18082345 -.00515524  00000+0 -39822-1 0  9995
2 57736  42.9999 188.9420 0000858 341.3757  18.7054 15.03246891  9884
STARLINK-30344          
1 57737U 23131F   23303.02514594 -.00026083  00000+0 -18235-2 0  9991
2 57737  42.9985 174.1618 0001034 284.7929  75.2799 15.04521911 10037
STARLINK-30351          
1 57738U 23131G   23303.02085474  .00007412  00000+0  53467-3 0  9992
2 57738  42.9974 174.1309 0001426 271.4171  88.6508 15.04503451 10192
STARLINK-30242          
1 57739U 23131H   23303.02147982 -.00278001  00000+0 -85931-2 0  9992
2 57739  42.9996 160.2534 0001065 320.2618  39.8158 15.33930763 10350
STARLINK-30331          
1 57740U 23131J   23302.95108790  .00010993  00000+0  78552-3 0  9993
2 57740  42.9980 174.4672 0001702 263.6471  96.4178 15.04503858 10293
STARLINK-30364          
1 57741U 23131K   23303.13984849  .00018278  00000+0  12945-2 0  9999
2 57741  42.9986 173.3024 0001468 274.3395  85.7280 15.04522144 10207
STARLINK-30308          
1 57742U 23131L   23301.15140437 -.00073722  00000+0 -54878-2 0  9995
2 57742  43.0000 184.1796 0001711 253.8068 106.2586 15.02617414 10035
STARLINK-30361          
1 57743U 23131M   23302.93605232  .00022469  00000+0  15874-2 0  9995
2 57743  42.9984 174.3562 0001261 263.1885  96.8815 15.04514127 10294
